0 COSMOS 2251 DEB
1 34558U 93036UU  13281.30674096  .00021985  00000-0  31003-2 0   126
2 34558 074.0312 028.1774 0052499 166.8357 224.9624 14.76218564244685
0 COSMOS 2251 DEB
1 34558U 93036UU  13283.27148500  .00039033  00000-0  54715-2 0   139
2 34558 074.0305 024.3276 0051900 162.7143 226.6312 14.76362110244967
0 COSMOS 2251 DEB
1 34558U 93036UU  13285.30924056  .00028737  00000-0  40242-2 0   143
2 34558 074.0325 020.3363 0051827 157.3278 258.4262 14.76482079245278
0 COSMOS 2251 DEB
1 34558U 93036UU  13286.68194584  .00027942  00000-0  39098-2 0   155
2 34558 074.0312 017.6449 0051116 155.2769 353.9884 14.76548251245479
0 COSMOS 2251 DEB
1 34558U 93036UU  13288.21816374  .00042820  00000-0  59640-2 0   162
2 34558 074.0318 014.6341 0050614 152.0786 239.9351 14.76654418245700
0 COSMOS 2251 DEB
1 34558U 93036UU  13289.66352701  .00038150  00000-0  53062-2 0   175
2 34558 074.0319 011.8011 0050131 148.8698 003.7392 14.76762097245911
0 COSMOS 2251 DEB
1 34558U 93036UU  13290.65104438  .00034955  00000-0  48687-2 0   185
2 34558 074.0359 009.8662 0050878 146.1776 214.3160 14.76824305246061
0 COSMOS 2251 DEB
1 34558U 93036UU  13291.35101072  .00032868  00000-0  45653-2 0   185
2 34558 074.0314 008.4931 0050011 144.7495 335.6710 14.76861081246168
0 COSMOS 2251 DEB
1 34558U 93036UU  13293.66004730  .00031138  00000-0  43145-2 0   198
2 34558 074.0316 003.9633 0049665 139.3063 013.0561 14.76988984246504
